$$SOE
2460721.500000000, A.D. 2025-Feb-15 00:00:00.0000, 4.734804888465549E+08, -9.784087739209086E+07, 3.792303143854502E+07,
2460728.500000000, A.D. 2025-Feb-22 00:00:00.0000, 4.746397350120941E+08, -8.791876952936262E+07, 3.836923479381109E+07,
2460735.500000000, A.D. 2025-Mar-01 00:00:00.0000, 4.755960519979208E+08, -7.795912010929979E+07, 3.879903109762606E+07,
2460742.500000000, A.D. 2025-Mar-08 00:00:00.0000, 4.763481063893043E+08, -6.796603472630183E+07, 3.921216059580885E+07,
2460749.500000000, A.D. 2025-Mar-15 00:00:00.0000, 4.768946432484534E+08, -5.794366951847013E+07, 3.960836848100452E+07,
2460756.500000000, A.D. 2025-Mar-22 00:00:00.0000, 4.772344859323078E+08, -4.789622961842933E+07, 3.998740535476543E+07,
2460763.500000000, A.D. 2025-Mar-29 00:00:00.0000, 4.773665372875801E+08, -3.782796978050012E+07, 4.034902738433111E+07,
2460770.500000000, A.D. 2025-Apr-05 00:00:00.0000, 4.772897825442533E+08, -2.774319404327649E+07, 4.069299638001448E+07,
2460777.500000000, A.D. 2025-Apr-12 00:00:00.0000, 4.770032919786704E+08, -1.764625432087633E+07, 4.101907997788357E+07,
2460784.500000000, A.D. 2025-Apr-19 00:00:00.0000, 4.765062231562933E+08, -7.541548801913429E+06, 4.132705187247609E+07,
2460791.500000000, A.D. 2025-Apr-26 00:00:00.0000, 4.757978230227231E+08, 2.566479642950898E+06, 4.161669205759306E+07,
2460798.500000000, A.D. 2025-May-03 00:00:00.0000, 4.748774299533389E+08, 1.267334506620697E+07, 4.188778706587380E+07,
2460805.500000000, A.D. 2025-May-10 00:00:00.0000, 4.737444757867188E+08, 2.277452007218551E+07, 4.214013020484037E+07,
2460812.500000000, A.D. 2025-May-17 00:00:00.0000, 4.723984878751225E+08, 3.286543743007544E+07, 4.237352178234456E+07,
2460819.500000000, A.D. 2025-May-24 00:00:00.0000, 4.708390913223217E+08, 4.294149161823198E+07, 4.258776930065694E+07,
2460826.500000000, A.D. 2025-May-31 00:00:00.0000, 4.690660118219706E+08, 5.299804061179440E+07, 4.278268760574385E+07,
2460833.500000000, A.D. 2025-Jun-07 00:00:00.0000, 4.670790786900542E+08, 6.303040912025874E+07, 4.295809912638623E+07,
2460840.500000000, A.D. 2025-Jun-14 00:00:00.0000, 4.648782257233769E+08, 7.303389261084083E+07, 4.311383436557294E+07,
2460847.500000000, A.D. 2025-Jun-21 00:00:00.0000, 4.624634910988905E+08, 8.300375884691378E+07, 4.324973226539239E+07,
2460854.500000000, A.D. 2025-Jun-28 00:00:00.0000, 4.598350194372907E+08, 9.293524870571113E+07, 4.336564030217813E+07,
2460861.500000000, A.D. 2025-Jul-05 00:00:00.0000, 4.569930645085181E+08, 1.028235784322516E+08, 4.346141462674241E+07,
2460868.500000000, A.D. 2025-Jul-12 00:00:00.0000, 4.539379913834624E+08, 1.126639425243750E+08, 4.353692029283517E+07,
2460875.500000000, A.D. 2025-Jul-19 00:00:00.0000, 4.506702782164794E+08, 1.224515166731693E+08, 4.359203150901806E+07,
2460882.500000000, A.D. 2025-Jul-26 00:00:00.0000, 4.471905178626976E+08, 1.321814607011674E+08, 4.362663188940782E+07,
2460889.500000000, A.D. 2025-Aug-02 00:00:00.0000, 4.434994193887509E+08, 1.418489215191932E+08, 4.364061469827416E+07,
2460896.500000000, A.D. 2025-Aug-09 00:00:00.0000, 4.395978094936339E+08, 1.514490360872470E+08, 4.363388308451381E+07,
2460903.500000000, A.D. 2025-Aug-16 00:00:00.0000, 4.354866339109957E+08, 1.609769343168041E+08, 4.360635029352931E+07,
2460910.500000000, A.D. 2025-Aug-23 00:00:00.0000, 4.311669590813346E+08, 1.704277419310750E+08, 4.355793983109894E+07,
2460917.500000000, A.D. 2025-Aug-30 00:00:00.0000, 4.266399744187634E+08, 1.797965839956290E+08, 4.348858560735514E+07,
2460924.500000000, A.D. 2025-Sep-06 00:00:00.0000, 4.219069937483351E+08, 1.890785901176452E+08, 4.339823227242836E+07,
2460931.500000000, A.D. 2025-Sep-13 00:00:00.0000, 4.169694542389625E+08, 1.982688988301296E+08, 4.328683569437850E+07,
2460938.500000000, A.D. 2025-Sep-20 00:00:00.0000, 4.118289161026223E+08, 2.073626595136904E+08, 4.315436314487796E+07,
2460945.500000000, A.D. 2025-Sep-27 00:00:00.0000, 4.064870641125617E+08, 2.163550349626693E+08, 4.300079334903745E+07,
2460952.500000000, A.D. 2025-Oct-04 00:00:00.0000, 4.009457089170035E+08, 2.252412051311122E+08, 4.282611662768833E+07,
2460959.500000000, A.D. 2025-Oct-11 00:00:00.0000, 3.952067877689724E+08, 2.340163711120241E+08, 4.263033508878483E+07,
2460966.500000000, A.D. 2025-Oct-18 00:00:00.0000, 3.892723649505015E+08, 2.426757590713909E+08, 4.241346281884557E+07,
2460973.500000000, A.D. 2025-Oct-25 00:00:00.0000, 3.831446320252099E+08, 2.512146241434508E+08, 4.217552606175752E+07,
2460980.500000000, A.D. 2025-Nov-01 00:00:00.0000, 3.768259079529960E+08, 2.596282542979963E+08, 4.191656338171346E+07,
2460987.500000000, A.D. 2025-Nov-08 00:00:00.0000, 3.703186390957712E+08, 2.679119741436408E+08, 4.163662580365829E+07,
2460994.500000000, A.D. 2025-Nov-15 00:00:00.0000, 3.636253992569799E+08, 2.760611486040447E+08, 4.133577691209444E+07,
2461001.500000000, A.D. 2025-Nov-22 00:00:00.0000, 3.567488901534843E+08, 2.840711866825084E+08, 4.101409288857627E+07,
2461008.500000000, A.D. 2025-Nov-29 00:00:00.0000, 3.496919421625386E+08, 2.919375464437324E+08, 4.067166259376132E+07,
2461015.500000000, A.D. 2025-Dec-06 00:00:00.0000, 3.424575130606710E+08, 2.996557410702942E+08, 4.030858789086522E+07,
2461022.500000000, A.D. 2025-Dec-13 00:00:00.0000, 3.350486851848633E+08, 3.072213426197346E+08, 3.992498389527638E+07,
2461029.500000000, A.D. 2025-Dec-20 00:00:00.0000, 3.274686645091704E+08, 3.146299844996272E+08, 3.952097891333050E+07,
2461036.500000000, A.D. 2025-Dec-27 00:00:00.0000, 3.197207805603728E+08, 3.218773652433505E+08, 3.909671437962256E+07,
2461043.500000000, A.D. 2026-Jan-03 00:00:00.0000, 3.118084857100103E+08, 3.289592529632633E+08, 3.865234487574415E+07,
2461050.500000000, A.D. 2026-Jan-10 00:00:00.0000, 3.037353539501582E+08, 3.358714897952094E+08, 3.818803816448908E+07,
2461057.500000000, A.D. 2026-Jan-17 00:00:00.0000, 2.955050793837150E+08, 3.426099962354764E+08, 3.770397521034741E+07,
2461064.500000000, A.D. 2026-Jan-24 00:00:00.0000, 2.871214745056902E+08, 3.491707753853889E+08, 3.720035018066114E+07,
2461071.500000000, A.D. 2026-Jan-31 00:00:00.0000, 2.785884682978487E+08, 3.555499170885473E+08, 3.667737042439708E+07,
2461078.500000000, A.D. 2026-Feb-07 00:00:00.0000, 2.699101041975570E+08, 3.617436018958081E+08, 3.613525641800462E+07,
2461085.500000000, A.D. 2026-Feb-14 00:00:00.0000, 2.610905381938842E+08, 3.677481048353806E+08, 3.557424165379059E+07,
2461092.500000000, A.D. 2026-Feb-21 00:00:00.0000, 2.521340374397348E+08, 3.735597995577489E+08, 3.499457248236394E+07,
2461099.500000000, A.D. 2026-Feb-28 00:00:00.0000, 2.430449782968497E+08, 3.791751639996448E+08, 3.439650810256596E+07,
2461106.500000000, A.D. 2026-Mar-07 00:00:00.0000, 2.338278417546318E+08, 3.845907856069379E+08, 3.378032072804654E+07,
2461113.500000000, A.D. 2026-Mar-14 00:00:00.0000, 2.244872089999933E+08, 3.898033637777022E+08, 3.314629548578200E+07,
2461120.500000000, A.D. 2026-Mar-21 00:00:00.0000, 2.150277589267260E+08, 3.948097124162800E+08, 3.249473012003466E+07,
2461127.500000000, A.D. 2026-Mar-28 00:00:00.0000, 2.054542655791546E+08, 3.996067636161790E+08, 3.182593476978070E+07,
2461134.500000000, A.D. 2026-Apr-04 00:00:00.0000, 1.957715949295369E+08, 4.041915714953297E+08, 3.114023179585746E+07,
2461141.500000000, A.D. 2026-Apr-11 00:00:00.0000, 1.859847012664726E+08, 4.085613158132650E+08, 3.043795560320044E+07,
2461148.500000000, A.D. 2026-Apr-18 00:00:00.0000, 1.760986233568194E+08, 4.127133053536536E+08, 2.971945244309708E+07,
2461155.500000000, A.D. 2026-Apr-25 00:00:00.0000, 1.661184804304926E+08, 4.166449810785909E+08, 2.898508019289693E+07,
2461162.500000000, A.D. 2026-May-02 00:00:00.0000, 1.560494680237462E+08, 4.203539190185419E+08, 2.823520810873005E+07,
2461169.500000000, A.D. 2026-May-09 00:00:00.0000, 1.458968538122772E+08, 4.238378328262459E+08, 2.747021653530508E+07,
2461176.500000000, A.D. 2026-May-16 00:00:00.0000, 1.356659738202992E+08, 4.270945761276965E+08, 2.669049655023617E+07,
2461183.500000000, A.D. 2026-May-23 00:00:00.0000, 1.253622290668576E+08, 4.301221456871592E+08, 2.589644962223122E+07,
2461190.500000000, A.D. 2026-May-30 00:00:00.0000, 1.149910805808225E+08, 4.329186856978447E+08, 2.508848749996361E+07,
2461197.500000000, A.D. 2026-Jun-06 00:00:00.0000, 1.045580424740184E+08, 4.354824899150215E+08, 2.426703209335402E+07,
2461204.500000000, A.D. 2026-Jun-13 00:00:00.0000, 9.406867674515353E+07, 4.378120018263554E+08, 2.343251502796403E+07,
2461211.500000000, A.D. 2026-Jun-20 00:00:00.0000, 8.352858932385027E+07, 4.399058157820417E+08, 2.258537715789908E+07,
2461218.500000000, A.D. 2026-Jun-27 00:00:00.0000, 7.294342566598508E+07, 4.417626787386356E+08, 2.172606816534588E+07,
2461225.500000000, A.D. 2026-Jul-04 00:00:00.0000, 6.231886590895601E+07, 4.433814918364733E+08, 2.085504618377641E+07,
2461232.500000000, A.D. 2026-Jul-11 00:00:00.0000, 5.166061985002852E+07, 4.447613116749530E+08, 1.997277741121027E+07,
2461239.500000000, A.D. 2026-Jul-18 00:00:00.0000, 4.097442185017875E+07, 4.459013513083214E+08, 1.907973570764309E+07,
2461246.500000000, A.D. 2026-Jul-25 00:00:00.0000, 3.026602569785118E+07, 4.468009809621373E+08, 1.817640217519075E+07,
2461253.500000000, A.D. 2026-Aug-01 00:00:00.0000, 1.954119949083581E+07, 4.474597284202673E+08, 1.726326471324983E+07,
2461260.500000000, A.D. 2026-Aug-08 00:00:00.0000, 8.805720761224180E+06, 4.478772790451531E+08, 1.634081752676886E+07,
2461267.500000000, A.D. 2026-Aug-15 00:00:00.0000, -1.934627731574105E+06, 4.480534758815068E+08, 1.540956058720353E+07,
2461274.500000000, A.D. 2026-Aug-22 00:00:00.0000, -1.267406229020727E+07, 4.479883210660672E+08, 1.446999921657833E+07,
2461281.500000000, A.D. 2026-Aug-29 00:00:00.0000, -2.340680492828878E+07, 4.476819771705462E+08, 1.352264389311644E+07,
2461288.500000000, A.D. 2026-Sep-05 00:00:00.0000, -3.412709023574046E+07, 4.471347656074315E+08, 1.256800984938571E+07,
2461295.500000000, A.D. 2026-Sep-12 00:00:00.0000, -4.482916999769120E+07, 4.463471645976374E+08, 1.160661644297346E+07,
$$EOE